GPS BIIR-2  (PRN 13)    
1 24876U 97035A   25361.69011140  .00000015  00000+0  00000+0 0  9994
2 24876  55.9021 105.2841 0096872  56.9081 304.0177  2.00563656208514
GPS BIIR-4  (PRN 20)    
1 26360U 00025A   25361.79603860 -.00000056  00000+0  00000+0 0  9990
2 26360  55.0542  26.2290 0038901 243.4297 286.0924  2.00566280187830
GPS BIIR-5  (PRN 22)    
1 26407U 00040A   25361.48368095  .00000081  00000+0  00000+0 0  9990
2 26407  54.8877 221.9826 0125219 302.0383 201.6627  2.00568072186503
GPS BIIR-8  (PRN 16)    
1 27663U 03005A   25361.35183736  .00000080  00000+0  00000+0 0  9991
2 27663  54.9202 221.7969 0147941  52.0116 132.4993  2.00570012167861
GPS BIIR-11 (PRN 19)    
1 28190U 04009A   25361.68676247 -.00000035  00000+0  00000+0 0  9993
2 28190  54.9721 282.6165 0108627 167.8674  56.6534  2.00560128159506
GPS BIIR-13 (PRN 02)    
1 28474U 04045A   25360.45834873 -.00000059  00000+0  00000+0 0  9999
2 28474  55.2338 331.8542 0171007 309.8650 168.2197  2.00570057154961
GPS BIIRM-1 (PRN 17)    
1 28874U 05038A   25361.48827932 -.00000031  00000+0  00000+0 0  9998
2 28874  55.0187 280.1070 0131146 293.9094 167.2168  2.00577349148390
GPS BIIRM-2 (PRN 31)    
1 29486U 06042A   25360.50386808  .00000108  00000+0  00000+0 0  9992
2 29486  54.6956 158.1947 0107270  52.2681 319.9840  2.00553566140935
GPS BIIRM-3 (PRN 12)    
1 29601U 06052A   25359.90863187  .00000072  00000+0  00000+0 0  9994
2 29601  54.9680 220.8755 0087990  87.5984 273.4866  2.00574428139938
GPS BIIRM-4 (PRN 15)    
1 32260U 07047A   25357.22362132 -.00000006  00000+0  00000+0 0  9999
2 32260  53.9621  87.3254 0164040  85.3777 276.5133  2.00564099133281
GPS BIIRM-5 (PRN 29)    
1 32384U 07062A   25360.27370513 -.00000028  00000+0  00000+0 0  9998
2 32384  55.1705 281.1030 0031409 162.2528  11.0381  2.00549336132049
GPS BIIRM-6 (PRN 07)    
1 32711U 08012A   25360.63377143  .00000107  00000+0  00000+0 0  9991
2 32711  54.4786 156.8183 0203068 245.1136 112.7544  2.00566161130299
GPS BIIRM-8 (PRN 05)    
1 35752U 09043A   25360.10164444 -.00000051  00000+0  00000+0 0  9993
2 35752  56.1002  34.2563 0051555  81.6915 271.8027  2.00564782119880
GPS BIIF-1  (PRN 25)    
1 36585U 10022A   25361.98581453  .00000096  00000+0  00000+0 0  9995
2 36585  54.2979 215.4589 0126667  65.2652 326.5727  2.00553903114165
GPS BIIF-3  (PRN 24)    
1 38833U 12053A   25360.31259841  .00000098  00000+0  00000+0 0  9990
2 38833  53.5600 150.6829 0176105  64.1890 297.6002  2.00565043 95976
GPS BIIF-4  (PRN 27)    
1 39166U 13023A   25360.17677372 -.00000022  00000+0  00000+0 0  9993
2 39166  54.6404 276.0219 0138718  48.7908 312.4421  2.00564526 92414
GPS BIIF-5  (PRN 30)    
1 39533U 14008A   25357.67806737  .00000082  00000+0  00000+0 0  9990
2 39533  53.5993 156.4877 0079553 225.9161 133.4108  2.00548852 86167
GPS BIIF-6  (PRN 06)    
1 39741U 14026A   25360.95299355 -.00000057  00000+0  00000+0 0  9991
2 39741  56.5780 338.2238 0039524 319.4951  40.2191  2.00560233 85080
GPS BIIF-7  (PRN 09)    
1 40105U 14045A   25357.54967704  .00000008  00000+0  00000+0 0  9994
2 40105  55.2352  95.4677 0032411 120.1575 240.1743  2.00573211 82556
GPS BIIF-8  (PRN 03)    
1 40294U 14068A   25361.41665917 -.00000050  00000+0  00000+0 0  9998
2 40294  56.8686  37.5783 0060879  68.8836 291.8270  2.00565744 81766
GPS BIIF-9  (PRN 26)    
1 40534U 15013A   25360.54942378  .00000088  00000+0  00000+0 0  9998
2 40534  53.1959 211.3182 0107550  38.8079 322.0280  2.00561683 78363
GPS BIIF-10 (PRN 08)    
1 40730U 15033A   25360.21207711 -.00000020  00000+0  00000+0 0  9994
2 40730  54.1189 274.2184 0111756  27.1685 333.4602  2.00564909 76528
GPS BIIF-11 (PRN 10)    
1 41019U 15062A   25361.76717602 -.00000051  00000+0  00000+0 0  9997
2 41019  56.8431  37.4211 0111161 230.3326 128.7393  2.00566979 74392
GPS BIIF-12 (PRN 32)    
1 41328U 16007A   25361.35150418  .00000002  00000+0  00000+0 0  9996
2 41328  55.4141  96.2770 0092886 243.9752 115.0799  2.00559889 72395
GPS BIII-1  (PRN 04)    
1 43873U 18109A   25361.51389192  .00000005  00000+0  00000+0 0  9992
2 43873  55.5747  98.9640 0037601 195.6581 174.9260  2.00553925 51633
GPS BIII-2  (PRN 18)    
1 44506U 19056A   25361.85460053 -.00000061  00000+0  00000+0 0  9994
2 44506  55.7156 337.9533 0057797 198.7004 315.4884  2.00566414 46637
GPS BIII-3  (PRN 23)    
1 45854U 20041A   25361.99285130 -.00000052  00000+0  00000+0 0  9993
2 45854  56.5574  35.5922 0060710 203.8660 353.9408  2.00561379 40600
GPS BIII-4  (PRN 14)    
1 46826U 20078A   25350.04599424  .00000067  00000+0  00000+0 0  9996
2 46826  54.0144 218.2068 0064754 203.3802 339.3962  2.00566891 37830
GPS BIII-5  (PRN 11)    
1 48859U 21054A   25342.17676416 -.00000086  00000+0  00000+0 0  9993
2 48859  55.2581 340.1367 0024678 233.3993 212.8594  2.00553627 32922
GPS BIII-6  (PRN 28)    
1 55268U 23009A   25356.45831094  .00000074  00000+0  00000+0 0  9994
2 55268  55.1065 155.4638 0003704 355.7912   4.4255  2.00554901 21704
GPS BIII-7  (PRN 01)    
1 62339U 24242A   25361.58523520 -.00000062  00000+0  00000+0 0  9991
2 62339  54.9190 341.1398 0012926 346.4819 193.5402  2.00567929  7817
GPS BIII-8  (PRN 21)    
1 64202U 25116A   25360.07601064 -.00000051  00000+0  00000+0 0  9994
2 64202  55.1151  38.1030 0005992 311.0999  48.1681  2.00557298  4398
